{"type": "FeatureCollection", "features": [ {"type": "Feature", "properties": {"norad_id": 44543, "name": "BEIDOU-3 M23 (C45)", "group": "beidou", "lat": -17.971624906513266, "lon": 22.011338932614475, "alt_km": 21547.725461862516, "timestamp": "2025-12-25T03:55:56.623026+00:00", "meta": {"OBJECT_NAME": "BEIDOU-3 M23 (C45)", "OBJECT_ID": "2019-061B", "EPOCH": "2025-12-24T01:09:49.421952", "MEAN_MOTION": 1.86227524, "ECCENTRICITY": 0.00060474, "INCLINATION": 54.3997, "RA_OF_ASC_NODE": 188.6027, "ARG_OF_PERICENTER": 26.1168, "MEAN_ANOMALY": 148.3907, "EPHEMERIS_TYPE": 0, "CLASSIFICATION_TYPE": "U", "NORAD_CAT_ID": 44543, "ELEMENT_SET_NO": 999, "REV_AT_EPOCH": 4253, "BSTAR": 0, "MEAN_MOTION_DOT": 1.01e-06, "MEAN_MOTION_DDOT": 0}, "tle": {"line1": "1 44543U 19061B   25358.04848868  .00000101  00000+0  00000+0 0  9996", "line2": "2 44543  54.3997 188.6027 0006047  26.1168 148.3907  1.86227524 42535"}}, "geometry": {"type": "Point", "coordinates": [22.011338932614475, -17.971624906513266]}}, {"type": "Feature", "properties": {"norad_id": 44793, "name": "BEIDOU-3 M22 (C44)", "group": "beidou", "lat": 29.073603879165415, "lon": -30.342158961507714, "alt_km": 21507.804373868785, "timestamp": "2025-12-25T03:55:56.623037+00:00", "meta": {"OBJECT_NAME": "BEIDOU-3 M22 (C44)", "OBJECT_ID": "2019-078A", "EPOCH": "2025-12-22T23:04:03.320256", "MEAN_MOTION": 1.86232206, "ECCENTRICITY": 0.00060944, "INCLINATION": 54.0989, "RA_OF_ASC_NODE": 306.0279, "ARG_OF_PERICENTER": 24.0205, "MEAN_ANOMALY": 336.0117, "EPHEMERIS_TYPE": 0, "CLASSIFICATION_TYPE": "U", "NORAD_CAT_ID": 44793, "ELEMENT_SET_NO": 999, "REV_AT_EPOCH": 4136, "BSTAR": 0, "MEAN_MOTION_DOT": -5.4e-07, "MEAN_MOTION_DDOT": 0}, "tle": {"line1": "1 44793U 19078A   25356.96114954 -.00000054  00000+0  00000+0 0  9990", "line2": "2 44793  54.0989 306.0279 0006094  24.0205 336.0117  1.86232206 41368"}}, "geometry": {"type": "Point", "coordinates": [-30.342158961507714, 29.073603879165415]}}, {"type": "Feature", "properties": {"norad_id": 44794, "name": "BEIDOU-3 M21 (C43)", "group": "beidou", "lat": -41.997781747883266, "lon": -94.80564639031093, "alt_km": 21528.869887840938, "timestamp": "2025-12-25T03:55:56.623049+00:00", "meta": {"OBJECT_NAME": "BEIDOU-3 M21 (C43)", "OBJECT_ID": "2019-078B", "EPOCH": "2025-12-24T04:09:05.808096", "MEAN_MOTION": 1.86227905, "ECCENTRICITY": 0.00042864, "INCLINATION": 54.0711, "RA_OF_ASC_NODE": 305.95, "ARG_OF_PERICENTER": 12.8306, "MEAN_ANOMALY": 347.188, "EPHEMERIS_TYPE": 0, "CLASSIFICATION_TYPE": "U", "NORAD_CAT_ID": 44794, "ELEMENT_SET_NO": 999, "REV_AT_EPOCH": 4139, "BSTAR": 0, "MEAN_MOTION_DOT": -5.2e-07, "MEAN_MOTION_DDOT": 0}, "tle": {"line1": "1 44794U 19078B   25358.17298389 -.00000052  00000+0  00000+0 0  9999", "line2": "2 44794  54.0711 305.9500 0004286  12.8306 347.1880  1.86227905 41398"}}, "geometry": {"type": "Point", "coordinates": [-94.80564639031093, -41.997781747883266]}}, {"type": "Feature", "properties": {"norad_id": 44864, "name": "BEIDOU-3 M19 (C41)", "group": "beidou", "lat": 32.321246296979815, "lon": -136.27105863179537, "alt_km": 21565.99081799027, "timestamp": "2025-12-25T03:55:56.623060+00:00", "meta": {"OBJECT_NAME": "BEIDOU-3 M19 (C41)", "OBJECT_ID": "2019-090A", "EPOCH": "2025-12-23T08:14:02.545728", "MEAN_MOTION": 1.86231621, "ECCENTRICITY": 0.00183506, "INCLINATION": 56.4016, "RA_OF_ASC_NODE": 68.6102, "ARG_OF_PERICENTER": 285.1686, "MEAN_ANOMALY": 74.3057, "EPHEMERIS_TYPE": 0, "CLASSIFICATION_TYPE": "U", "NORAD_CAT_ID": 44864, "ELEMENT_SET_NO": 999, "REV_AT_EPOCH": 4095, "BSTAR": 0, "MEAN_MOTION_DOT": -2.5e-07, "MEAN_MOTION_DDOT": 0}, "tle": {"line1": "1 44864U 19090A   25357.34308502 -.00000025  00000+0  00000+0 0  9998", "line2": "2 44864  56.4016  68.6102 0018350 285.1686  74.3057  1.86231621 40950"}}, "geometry": {"type": "Point", "coordinates": [-136.27105863179537, 32.321246296979815]}}, {"type": "Feature", "properties": {"norad_id": 44865, "name": "BEIDOU-3 M20 (C42)", "group": "beidou", "lat": -39.408497189300476, "lon": -78.34035144637255, "alt_km": 21516.26326947125, "timestamp": "2025-12-25T03:55:56.623071+00:00", "meta": {"OBJECT_NAME": "BEIDOU-3 M20 (C42)", "OBJECT_ID": "2019-090B", "EPOCH": "2025-12-24T06:49:50.341152", "MEAN_MOTION": 1.862316, "ECCENTRICITY": 0.00155247, "INCLINATION": 56.404, "RA_OF_ASC_NODE": 68.6133, "ARG_OF_PERICENTER": 297.3471, "MEAN_ANOMALY": 62.9851, "EPHEMERIS_TYPE": 0, "CLASSIFICATION_TYPE": "U", "NORAD_CAT_ID": 44865, "ELEMENT_SET_NO": 999, "REV_AT_EPOCH": 4096, "BSTAR": 0, "MEAN_MOTION_DOT": -2.4e-07, "MEAN_MOTION_DDOT": 0}, "tle": {"line1": "1 44865U 19090B   25358.28461043 -.00000024  00000+0  00000+0 0  9992", "line2": "2 44865  56.4040  68.6133 0015524 297.3471  62.9851  1.86231600 40962"}}, "geometry": {"type": "Point", "coordinates": [-78.34035144637255, -39.408497189300476]}}, {"type": "Feature", "properties": {"norad_id": 45344, "name": "BEIDOU-3 G2 (C60)", "group": "beidou", "lat": -0.3978197157453615, "lon": -127.07195308620591, "alt_km": 35780.02779864055, "timestamp": "2025-12-25T03:55:56.623083+00:00", "meta": {"OBJECT_NAME": "BEIDOU-3 G2 (C60)", "OBJECT_ID": "2020-017A", "EPOCH": "2025-12-24T20:19:44.530752", "MEAN_MOTION": 1.00272356, "ECCENTRICITY": 0.0002113, "INCLINATION": 2.5183, "RA_OF_ASC_NODE": 44.1145, "ARG_OF_PERICENTER": 237.107, "MEAN_ANOMALY": 197.3749, "EPHEMERIS_TYPE": 0, "CLASSIFICATION_TYPE": "U", "NORAD_CAT_ID": 45344, "ELEMENT_SET_NO": 999, "REV_AT_EPOCH": 2151, "BSTAR": 0, "MEAN_MOTION_DOT": -1.2e-06, "MEAN_MOTION_DDOT": 0}, "tle": {"line1": "1 45344U 20017A   25358.84704318 -.00000120  00000+0  00000+0 0  9990", "line2": "2 45344   2.5183  44.1145 0002113 237.1070 197.3749  1.00272356 21512"}}, "geometry": {"type": "Point", "coordinates": [-127.07195308620591, -0.3978197157453615]}}, {"type": "Feature", "properties": {"norad_id": 45807, "name": "BEIDOU-3 G3 (C61)", "group": "beidou", "lat": -0.5989049736572227, "lon": -96.63872692318698, "alt_km": 35797.902418897, "timestamp": "2025-12-25T03:55:56.623095+00:00", "meta": {"OBJECT_NAME": "BEIDOU-3 G3 (C61)", "OBJECT_ID": "2020-040A", "EPOCH": "2025-12-24T06:46:41.471616", "MEAN_MOTION": 1.00268173, "ECCENTRICITY": 0.00065833, "INCLINATION": 2.0173, "RA_OF_ASC_NODE": 66.6796, "ARG_OF_PERICENTER": 309.1585, "MEAN_ANOMALY": 289.4373, "EPHEMERIS_TYPE": 0, "CLASSIFICATION_TYPE": "U", "NORAD_CAT_ID": 45807, "ELEMENT_SET_NO": 999, "REV_AT_EPOCH": 2031, "BSTAR": 0, "MEAN_MOTION_DOT": -3.33e-06, "MEAN_MOTION_DDOT": 0}, "tle": {"line1": "1 45807U 20040A   25358.28242444 -.00000333  00000+0  00000+0 0  9991", "line2": "2 45807   2.0173  66.6796 0006583 309.1585 289.4373  1.00268173 20312"}}, "geometry": {"type": "Point", "coordinates": [-96.63872692318698, -0.5989049736572227]}}, {"type": "Feature", "properties": {"norad_id": 56564, "name": "BEIDOU-3 G4 (C62)", "group": "beidou", "lat": 0.11972016830492851, "lon": -47.022524870194694, "alt_km": 35794.77499293012, "timestamp": "2025-12-25T03:55:56.623107+00:00", "meta": {"OBJECT_NAME": "BEIDOU-3 G4 (C62)", "OBJECT_ID": "2023-066A", "EPOCH": "2025-12-24T18:59:44.691936", "MEAN_MOTION": 1.0027093, "ECCENTRICITY": 0.0002581, "INCLINATION": 0.79, "RA_OF_ASC_NODE": 302.9839, "ARG_OF_PERICENTER": 228.7781, "MEAN_ANOMALY": 6.7907, "EPHEMERIS_TYPE": 0, "CLASSIFICATION_TYPE": "U", "NORAD_CAT_ID": 56564, "ELEMENT_SET_NO": 999, "REV_AT_EPOCH": 964, "BSTAR": 0, "MEAN_MOTION_DOT": -9e-07, "MEAN_MOTION_DDOT": 0}, "tle": {"line1": "1 56564U 23066A   25358.79148949 -.00000090  00000+0  00000+0 0  9995", "line2": "2 56564   0.7900 302.9839 0002581 228.7781   6.7907  1.00270930  9649"}}, "geometry": {"type": "Point", "coordinates": [-47.022524870194694, 0.11972016830492851]}}, {"type": "Feature", "properties": {"norad_id": 58654, "name": "BEIDOU-3 M28 (C50)", "group": "beidou", "lat": -51.66700760139507, "lon": -51.84622017543147, "alt_km": 21526.553311208583, "timestamp": "2025-12-25T03:55:56.623118+00:00", "meta": {"OBJECT_NAME": "BEIDOU-3 M28 (C50)", "OBJECT_ID": "2023-207A", "EPOCH": "2025-12-23T04:15:12.326400", "MEAN_MOTION": 1.86229739, "ECCENTRICITY": 0.00028337, "INCLINATION": 55.5933, "RA_OF_ASC_NODE": 68.248, "ARG_OF_PERICENTER": 274.486, "MEAN_ANOMALY": 85.5342, "EPHEMERIS_TYPE": 0, "CLASSIFICATION_TYPE": "U", "NORAD_CAT_ID": 58654, "ELEMENT_SET_NO": 999, "REV_AT_EPOCH": 1356, "BSTAR": 0, "MEAN_MOTION_DOT": -2.8e-07, "MEAN_MOTION_DDOT": 0}, "tle": {"line1": "1 58654U 23207A   25357.17722600 -.00000028  00000+0  00000+0 0  9998", "line2": "2 58654  55.5933  68.2480 0002833 274.4860  85.5342  1.86229739 13564"}}, "geometry": {"type": "Point", "coordinates": [-51.84622017543147, -51.66700760139507]}}, {"type": "Feature", "properties": {"norad_id": 58655, "name": "BEIDOU-3 M26 (C48)", "group": "beidou", "lat": 22.519748372054654, "lon": 84.66950681389075, "alt_km": 21532.411832954618, "timestamp": "2025-12-25T03:55:56.623130+00:00", "meta": {"OBJECT_NAME": "BEIDOU-3 M26 (C48)", "OBJECT_ID": "2023-207B", "EPOCH": "2025-12-22T23:23:41.171712", "MEAN_MOTION": 1.86231234, "ECCENTRICITY": 0.00041871, "INCLINATION": 55.5951, "RA_OF_ASC_NODE": 68.241, "ARG_OF_PERICENTER": 260.4893, "MEAN_ANOMALY": 99.5155, "EPHEMERIS_TYPE": 0, "CLASSIFICATION_TYPE": "U", "NORAD_CAT_ID": 58655, "ELEMENT_SET_NO": 999, "REV_AT_EPOCH": 1354, "BSTAR": 0, "MEAN_MOTION_DOT": -2.8e-07, "MEAN_MOTION_DDOT": 0}, "tle": {"line1": "1 58655U 23207B   25356.97478208 -.00000028  00000+0  00000+0 0  9998", "line2": "2 58655  55.5951  68.2410 0004187 260.4893  99.5155  1.86231234 13541"}}, "geometry": {"type": "Point", "coordinates": [84.66950681389075, 22.519748372054654]}}]}